[
  {
    "name": "ONEWEB-0230",
    "noradId": "48769",
    "line1": "1 48769U 21045C   26198.13133929  .00000096  00000+0  22208-3 0  9994",
    "line2": "2 48769  87.8978 253.2371 0001931  96.1858 263.9492 13.15548686248609"
  },
  {
    "name": "ONEWEB-0237",
    "noradId": "48770",
    "line1": "1 48770U 21045D   26198.12024287  .00000027  00000+0  38729-4 0  9991",
    "line2": "2 48770  87.8983 253.2412 0002378  94.8968 265.2434 13.15548446248320"
  },
  {
    "name": "ONEWEB-0235",
    "noradId": "48771",
    "line1": "1 48771U 21045E   26197.63853013 -.00000113  00000+0 -33542-3 0  9999",
    "line2": "2 48771  87.8991 253.3254 0002254 107.7272 252.4104 13.15550006248259"
  },
  {
    "name": "ONEWEB-0242",
    "noradId": "48772",
    "line1": "1 48772U 21045F   26198.08855479  .00000053  00000+0  10749-3 0  9993",
    "line2": "2 48772  87.8995 253.2329 0001997 103.0317 257.1037 13.15548863248354"
  },
  {
    "name": "ONEWEB-0241",
    "noradId": "48773",
    "line1": "1 48773U 21045G   26198.07589426  .00000162  00000+0  39593-3 0  9998",
    "line2": "2 48773  87.8983 253.2504 0002407 104.6405 255.4992 13.15538925248268"
  },
  {
    "name": "ONEWEB-0243",
    "noradId": "48774",
    "line1": "1 48774U 21045H   26198.10755189 -.00000025  00000+0 -10063-3 0  9995",
    "line2": "2 48774  87.8980 253.2570 0001928 111.8859 248.2476 13.15551133248295"
  },
  {
    "name": "ONEWEB-0222",
    "noradId": "48775",
    "line1": "1 48775U 21045J   26198.09092748 -.00000013  00000+0 -69335-4 0  9993",
    "line2": "2 48775  87.8992 253.2298 0002219 101.3166 258.8214 13.15547104248330"
  },
  {
    "name": "ONEWEB-0244",
    "noradId": "48776",
    "line1": "1 48776U 21045K   26197.66073439 -.00000010  00000+0 -61699-4 0  9994",
    "line2": "2 48776  87.8995 253.3122 0002126 101.4832 258.6537 13.15547794248846"
  },
  {
    "name": "ONEWEB-0247",
    "noradId": "48777",
    "line1": "1 48777U 21045L   26198.11388727 -.00000947  00000+0 -25495-2 0  9996",
    "line2": "2 48777  87.8983 253.2502 0002182 120.8040 239.3305 13.15552389248343"
  },
  {
    "name": "ONEWEB-0245",
    "noradId": "48778",
    "line1": "1 48778U 21045M   26198.10913965 -.00000079  00000+0 -24403-3 0  9999",
    "line2": "2 48778  87.8990 253.2331 0002238  98.9950 261.1434 13.15549376248314"
  },
  {
    "name": "ONEWEB-0229",
    "noradId": "48779",
    "line1": "1 48779U 21045N   26198.10439955 -.00000102  00000+0 -30611-3 0  9997",
    "line2": "2 48779  87.8989 253.2313 0001996  99.7364 260.3992 13.15548006248343"
  },
  {
    "name": "ONEWEB-0228",
    "noradId": "48780",
    "line1": "1 48780U 21045P   26198.13780678  .00000180  00000+0  44302-3 0  9999",
    "line2": "2 48780  87.8994 253.2191 0002094  99.5965 260.5402 13.15548997248268"
  },
  {
    "name": "ONEWEB-0232",
    "noradId": "48781",
    "line1": "1 48781U 21045Q   26198.11232634 -.00000105  00000+0 -31291-3 0  9994",
    "line2": "2 48781  87.8992 253.2245 0002141  96.8341 263.3033 13.15547531248587"
  },
  {
    "name": "ONEWEB-0231",
    "noradId": "48782",
    "line1": "1 48782U 21045R   26197.70985288 -.00000105  00000+0 -31190-3 0  9997",
    "line2": "2 48782  87.8992 253.3159 0002258 103.1127 257.0255 13.15547626248228"
  },
  {
    "name": "ONEWEB-0234",
    "noradId": "48783",
    "line1": "1 48783U 21045S   26198.12803295  .00000074  00000+0  16275-3 0  9992",
    "line2": "2 48783  87.8992 253.2152 0002696  85.1685 274.9753 13.15547474248418"
  },
  {
    "name": "ONEWEB-0238",
    "noradId": "48784",
    "line1": "1 48784U 21045T   26198.12828986  .00000107  00000+0  25032-3 0  9995",
    "line2": "2 48784  87.8992 253.2113 0002403  91.1590 268.9815 13.15548629248318"
  },
  {
    "name": "ONEWEB-0240",
    "noradId": "48785",
    "line1": "1 48785U 21045U   26197.69320721  .00000079  00000+0  17510-3 0  9991",
    "line2": "2 48785  87.8995 253.3074 0002354 101.7824 258.3571 13.15549574248280"
  },
  {
    "name": "ONEWEB-0246",
    "noradId": "48786",
    "line1": "1 48786U 21045V   26198.14401334  .00000214  00000+0  53535-3 0  9991",
    "line2": "2 48786  87.8994 253.2212 0002010 100.8004 259.3353 13.15548038248218"
  },
  {
    "name": "ONEWEB-0210",
    "noradId": "48787",
    "line1": "1 48787U 21045W   26198.11865970  .00000033  00000+0  54571-4 0  9990",
    "line2": "2 48787  87.8992 253.2238 0001892 122.5505 237.5808 13.15548058248258"
  },
  {
    "name": "ONEWEB-0214",
    "noradId": "48788",
    "line1": "1 48788U 21045X   26198.12736574  .00000098  00000+0  22702-3 0  9990",
    "line2": "2 48788  87.8988 253.2193 0001778 103.5621 256.5708 13.15547217248228"
  },
  {
    "name": "ONEWEB-0221",
    "noradId": "48789",
    "line1": "1 48789U 21045Y   26197.67816476 -.00001578  00000+0 -42258-2 0  9993",
    "line2": "2 48789  87.8994 253.3169 0002106 108.3425 251.7934 13.15556810248251"
  },
  {
    "name": "ONEWEB-0213",
    "noradId": "48790",
    "line1": "1 48790U 21045Z   26198.12341414  .00000061  00000+0  12863-3 0  9995",
    "line2": "2 48790  87.8988 253.2311 0002109 105.7840 254.3523 13.15548664248373"
  },
  {
    "name": "ONEWEB-0212",
    "noradId": "48791",
    "line1": "1 48791U 21045AA  26197.64408505 -.00000126  00000+0 -36901-3 0  9990",
    "line2": "2 48791  87.8992 253.3210 0002146  96.6558 263.4816 13.15546749248304"
  },
  {
    "name": "ONEWEB-0227",
    "noradId": "48792",
    "line1": "1 48792U 21045AB  26198.09964529 -.00000077  00000+0 -23874-3 0  9994",
    "line2": "2 48792  87.8989 253.2302 0002123  98.7676 261.3695 13.15548232248313"
  },
  {
    "name": "ONEWEB-0226",
    "noradId": "48793",
    "line1": "1 48793U 21045AC  26198.09330616 -.00000012  00000+0 -66173-4 0  9998",
    "line2": "2 48793  87.8990 253.2360 0002032 103.8240 256.3117 13.15548389248286"
  },
  {
    "name": "ONEWEB-0224",
    "noradId": "48794",
    "line1": "1 48794U 21045AD  26198.13292463  .00000167  00000+0  40845-3 0  9997",
    "line2": "2 48794  87.8981 253.2606 0002981  96.6448 263.5022 13.15548615248212"
  },
  {
    "name": "ONEWEB-0233",
    "noradId": "48795",
    "line1": "1 48795U 21045AE  26198.13752884  .00000176  00000+0  43248-3 0  9996",
    "line2": "2 48795  87.8980 253.2669 0002279 103.6066 256.5319 13.15550569248230"
  },
  {
    "name": "ONEWEB-0190",
    "noradId": "48796",
    "line1": "1 48796U 21045AF  26198.12499707 -.00000005  00000+0 -47096-4 0  9997",
    "line2": "2 48796  87.8989 253.2329 0002324 114.5599 245.5774 13.15549312248301"
  },
  {
    "name": "ONEWEB-0236",
    "noradId": "48797",
    "line1": "1 48797U 21045AG  26197.68608793  .00000201  00000+0  50004-3 0  9993",
    "line2": "2 48797  87.8984 253.3280 0002125  95.1104 265.0268 13.15548637248134"
  },
  {
    "name": "ONEWEB-0248",
    "noradId": "48798",
    "line1": "1 48798U 21045AH  26198.07904242  .00000148  00000+0  35933-3 0  9990",
    "line2": "2 48798  87.8993 253.2363 0002469 105.4740 254.6663 13.15549452248340"
  }
]